GLOBALSTAR M001 [-]     
1 25162U 98008A   24087.53656765 -.00000019  00000+0  59545-3 0  9996
2 25162  52.0023 193.2032 0001702  55.5730 317.3520 12.38180704188388
GLOBALSTAR M004 [-]     
1 25163U 98008B   24087.41875006 -.00000070  00000+0  18501-3 0  9999
2 25163  52.0023 337.0948 0003452  29.2112 143.8500 12.63353233205218
GLOBALSTAR M002 [-]     
1 25164U 98008C   24087.26765107 -.00000040  00000+0  71700-3 0  9990
2 25164  52.0002 280.7740 0002034  64.8768 295.2263 11.61500053132136
GLOBALSTAR M003 [-]     
1 25165U 98008D   24087.41967795  .00000063  00000+0  16255-2 0  9992
2 25165  51.9856 325.9192 0008505 112.3745  58.3846 12.11988895179044
GLOBALSTAR M014 [-]     
1 25306U 98023A   24087.62252274 -.00000062  00000+0  28290-3 0  9991
2 25306  51.9824 212.4931 0000589 199.0981 173.9542 11.65466028139102
GLOBALSTAR M006 [-]     
1 25307U 98023B   24087.58660735 -.00000038  00000+0  77720-3 0  9997
2 25307  51.9919 248.3673 0003972  37.7962  38.4536 11.58158526165082
GLOBALSTAR M015 [-]     
1 25308U 98023C   24087.38811991 -.00000093  00000+0 -45084-3 0  9998
2 25308  51.9848 326.8570 0012680   4.8782 165.6968 11.48851780142722
GLOBALSTAR M008 [-]     
1 25309U 98023D   24087.64490866 -.00000070  00000+0  20834-3 0  9992
2 25309  51.9977  52.6577 0002437 322.5095 208.4938 12.36039283182623
